NORAD_CAT_ID,OBJECT_NAME,OBJECT_TYPE,EPOCH,MEAN_MOTION,ECCENTRICITY,INCLINATION,RA_OF_ASC_NODE,ARG_OF_PERICENTER,MEAN_ANOMALY,BSTAR,MEAN_MOTION_DOT,MEAN_MOTION_DDOT,TLE_LINE0,TLE_LINE1,TLE_LINE2,SEMIMAJOR_AXIS,PERIOD,APOGEE,PERIGEE,DECAYED
55419.0,STARLINK-5629,PAYLOAD,2023-05-03 13:19:43,15.48859426,0.0003324,69.9977,192.1886,176.0435,184.0777,-0.0053967,-0.00281622,0.0,0 STARLINK-5629,1 55419U 23014AE  23123.55535906 -.00281622  00000-0 -53967-2 0  9998,2 55419  69.9977 192.1886 0003324 176.0435 184.0777 15.48859426 15547,6798.198,92.972,422.323,417.804,0.0
55419.0,STARLINK-5629,PAYLOAD,2023-05-03 17:56:40,15.50218226,0.0003251,69.9986,191.6567,261.5344,98.5473,-0.0020596,-0.0011522,0.0,0 STARLINK-5629,1 55419U 23014AE  23123.74769112 -.00115220  00000-0 -20596-2 0  9999,2 55419  69.9986 191.6567 0003251 261.5344  98.5473 15.50218226 14636,6794.225,92.89,418.299,413.882,0.0
55419.0,STARLINK-5629,PAYLOAD,2023-05-04 06:00:00,15.48316984,0.0003449,70.0001,190.2835,268.0747,14.3396,-0.020169,-0.00978517,0.0,0 STARLINK-5629,1 55419U 23014AE  23124.25001157 -.00978517  00000-0 -20169-1 0  9995,2 55419  70.0001 190.2835 0003449 268.0747  14.3396 15.48316984 14714,6799.786,93.004,423.996,419.306,0.0
55419.0,STARLINK-5629,PAYLOAD,2023-05-04 14:00:01,15.47609968,0.0003475,69.9997,189.3766,275.3221,64.1541,-0.018465,-0.00870293,0.0,0 STARLINK-5629,1 55419U 23014AE  23124.58335648 -.00870293  00000-0 -18465-1 0  9994,2 55419  69.9997 189.3766 0003475 275.3221  64.1541 15.47609968  1306,6801.857,93.047,426.086,421.358,0.0
55419.0,STARLINK-5629,PAYLOAD,2023-05-04 21:51:35,15.48661818,0.000166,69.997,188.4905,310.6207,49.4833,-0.0047652,-0.00247947,0.0,0 STARLINK-5629,1 55419U 23014AE  23124.91082617 -.00247947  00000-0 -47652-2 0  9991,2 55419  69.9970 188.4905 0001660 310.6207  49.4833 15.48661818 15750,6798.777,92.984,421.77,419.513,0.0
55419.0,STARLINK-5629,PAYLOAD,2023-05-04 22:00:01,15.46941728,0.0003362,69.9995,188.4705,272.334,123.3554,-0.018669,-0.00860557,0.0,0 STARLINK-5629,1 55419U 23014AE  23124.91668981 -.00860557  00000-0 -18669-1 0  9998,2 55419  69.9995 188.4705 0003362 272.3340 123.3554 15.46941728 14815,6803.816,93.087,427.968,423.393,0.0
55419.0,STARLINK-5629,PAYLOAD,2023-05-05 13:23:11,15.47361688,0.0003467,69.9967,186.735,273.2235,86.8552,-0.0056002,-0.00277525,0.0,0 STARLINK-5629,1 55419U 23014AE  23125.55777500 -.00277525  00000-0 -56002-2 0  9998,2 55419  69.9967 186.7350 0003467 273.2235  86.8552 15.47361688 14914,6802.585,93.062,426.808,422.091,0.0
55419.0,STARLINK-5629,PAYLOAD,2023-05-05 22:00:00,15.44985313,0.0003158,69.9991,185.7578,267.7241,291.8115,-0.019891,-0.00857301,0.0,0 STARLINK-5629,1 55419U 23014AE  23125.91667824 -.00857301  00000-0 -19891-1 0  9995,2 55419  69.9991 185.7578 0003158 267.7241 291.8115 15.44985313 14977,6809.558,93.205,433.574,429.273,0.0
55419.0,STARLINK-5629,PAYLOAD,2023-05-06 04:55:20,15.46062308,0.0004675,69.9966,184.9815,255.8477,104.2187,-0.0047476,-0.00226499,0.0,0 STARLINK-5629,1 55419U 23014AE  23126.20509772 -.00226499  00000-0 -47476-2 0  9994,2 55419  69.9966 184.9815 0004675 255.8477 104.2187 15.46062308 15012,6806.395,93.14,431.442,425.078,0.0
55419.0,STARLINK-5629,PAYLOAD,2023-05-06 16:00:00,15.43563875,0.0003275,69.9985,183.7288,275.7189,132.1136,-0.02265,-0.00936399,0.0,0 STARLINK-5629,1 55419U 23014AE  23126.66667824 -.00936399  00000-0 -22650-1 0  9990,2 55419  69.9985 183.7288 0003275 275.7189 132.1136 15.43563875  1303,6813.738,93.291,437.835,433.372,0.0
55419.0,STARLINK-5629,PAYLOAD,2023-05-07 04:15:17,15.441273,0.0003244,69.9967,182.3543,259.9287,100.153,-0.005622,-0.0025023,0.0,0 STARLINK-5629,1 55419U 23014AE  23127.17728162 -.00250230  00000-0 -56220-2 0  9994,2 55419  69.9967 182.3543 0003244 259.9287 100.1530 15.44127300 15163,6812.081,93.257,436.155,431.736,0.0
55419.0,STARLINK-5629,PAYLOAD,2023-05-07 06:00:00,15.42436079,0.0003341,69.9987,182.154,268.4879,138.6282,-0.024386,-0.00967668,0.0,0 STARLINK-5629,1 55419U 23014AE  23127.25001157 -.00967668  00000-0 -24386-1 0  9998,2 55419  69.9987 182.1540 0003341 268.4879 138.6282 15.42436079 15175,6817.059,93.359,441.202,436.647,0.0
55419.0,STARLINK-5629,PAYLOAD,2023-05-07 12:02:16,15.43564882,0.0004038,69.9964,181.4794,270.763,89.309,-0.006054,-0.00263954,0.0,0 STARLINK-5629,1 55419U 23014AE  23127.50157635 -.00263954  00000-0 -60540-2 0  9999,2 55419  69.9964 181.4794 0004038 270.7630  89.3090 15.43564882 15217,6813.735,93.291,438.352,432.849,0.0
55419.0,STARLINK-5629,PAYLOAD,2023-05-07 13:35:46,15.43383973,0.0003787,69.9964,181.3046,266.8684,93.2065,-0.0064926,-0.0028073,0.0,0 STARLINK-5629,1 55419U 23014AE  23127.56651506 -.00280730  00000-0 -64926-2 0  9994,2 55419  69.9964 181.3046 0003787 266.8684  93.2065 15.43383973 16162,6814.268,93.301,438.713,433.552,0.0
55419.0,STARLINK-5629,PAYLOAD,2023-05-07 22:00:00,15.41066402,0.0003158,69.9983,180.3569,269.2345,237.0022,-0.022309,-0.00854554,0.0,0 STARLINK-5629,1 55419U 23014AE  23127.91667824 -.00854554  00000-0 -22309-1 0  9992,2 55419  69.9983 180.3569 0003158 269.2345 237.0022 15.41066402 15270,6821.098,93.442,445.117,440.809,0.0
55419.0,STARLINK-5629,PAYLOAD,2023-05-08 14:00:01,15.39787886,0.0003171,69.9983,178.5637,272.5158,329.6903,-0.024466,-0.00894876,0.0,0 STARLINK-5629,1 55419U 23014AE  23128.58334491 -.00894876  00000-0 -24466-1 0  9994,2 55419  69.9983 178.5637 0003171 272.5158 329.6903 15.39787886 15380,6824.873,93.519,448.902,444.574,0.0
55419.0,STARLINK-5629,PAYLOAD,2023-05-08 20:45:43,15.40973004,0.0002535,69.9963,177.8089,322.5169,37.5834,-0.0066398,-0.00265319,0.0,0 STARLINK-5629,1 55419U 23014AE  23128.86508519 -.00265319  00000-0 -66398-2 0  9994,2 55419  69.9963 177.8089 0002535 322.5169  37.5834 15.40973004 16360,6821.373,93.447,444.968,441.509,0.0
55419.0,STARLINK-5629,PAYLOAD,2023-05-09 12:21:59,15.39641832,0.0003002,69.9962,176.0664,254.716,105.3688,-0.0073529,-0.00280639,0.0,0 STARLINK-5629,1 55419U 23014AE  23129.51527425 -.00280639  00000-0 -73529-2 0  9990,2 55419  69.9962 176.0664 0003002 254.7160 105.3688 15.39641832 15523,6825.305,93.528,449.219,445.121,0.0
55419.0,STARLINK-5629,PAYLOAD,2023-05-10 14:00:01,15.35876968,0.0003143,69.9983,173.2048,274.5537,236.8042,-0.027896,-0.00897908,0.0,0 STARLINK-5629,1 55419U 23014AE  23130.58334491 -.00897908  00000-0 -27896-1 0  9996,2 55419  69.9983 173.2048 0003143 274.5537 236.8042 15.35876968  1306,6836.454,93.758,460.468,456.17,0.0
55419.0,STARLINK-5629,PAYLOAD,2023-05-10 22:00:00,15.35194006,0.000316,69.9984,172.3149,267.8618,285.6263,-0.026822,-0.00848586,0.0,0 STARLINK-5629,1 55419U 23014AE  23130.91667824 -.00848586  00000-0 -26822-1 0  9998,2 55419  69.9984 172.3149 0003160 267.8618 285.6263 15.35194006  1306,6838.481,93.799,462.507,458.185,0.0
55419.0,STARLINK-5629,PAYLOAD,2023-05-11 06:00:00,15.3459416,0.0003273,69.9986,171.426,267.8371,326.9777,-0.030768,-0.00946108,0.0,0 STARLINK-5629,1 55419U 23014AE  23131.25001157 -.00946108  00000-0 -30768-1 0  9990,2 55419  69.9986 171.4260 0003273 267.8371 326.9777 15.34594160 15794,6840.263,93.836,464.367,459.889,0.0
55419.0,STARLINK-5629,PAYLOAD,2023-05-11 14:00:01,15.33928957,0.0003322,69.9983,170.5377,272.3768,2.9938,-0.0302,-0.00912142,0.0,0 STARLINK-5629,1 55419U 23014AE  23131.58334491 -.00912142  00000-0 -30200-1 0  9998,2 55419  69.9983 170.5377 0003322 272.3768   2.9938 15.33928957  1302,6842.241,93.877,466.379,461.833,0.0
55419.0,STARLINK-5629,PAYLOAD,2023-05-11 22:00:00,15.33234378,0.0003401,69.9987,169.6504,267.5867,47.5723,-0.028421,-0.00845123,0.0,0 STARLINK-5629,1 55419U 23014AE  23131.91667824 -.00845123  00000-0 -28421-1 0  9990,2 55419  69.9987 169.6504 0003401 267.5867  47.5723 15.33234378 15894,6844.307,93.919,468.5,463.844,0.0
55419.0,STARLINK-5629,PAYLOAD,2023-05-12 06:00:00,15.32636509,0.0003517,69.999,168.7641,269.319,84.8195,-0.032702,-0.00945149,0.0,0 STARLINK-5629,1 55419U 23014AE  23132.25001157 -.00945149  00000-0 -32702-1 0  9995,2 55419  69.9990 168.7641 0003517 269.3190  84.8195 15.32636509 15941,6846.087,93.956,470.36,465.544,0.0
55419.0,STARLINK-5629,PAYLOAD,2023-05-12 12:00:00,15.32109874,0.0003427,69.9989,168.0998,272.8277,20.0482,-0.030478,-0.00872443,0.0,0 STARLINK-5629,1 55419U 23014AE  23132.50001157 -.00872443  00000-0 -30478-1 0  9997,2 55419  69.9989 168.0998 0003427 272.8277  20.0482 15.32109874  1308,6847.655,93.988,471.867,467.174,0.0
55419.0,STARLINK-5629,PAYLOAD,2023-05-12 22:00:00,15.31278216,0.0003473,69.9989,166.9936,269.8354,159.9505,-0.030188,-0.00844206,0.0,0 STARLINK-5629,1 55419U 23014AE  23132.91667824 -.00844206  00000-0 -30188-1 0  9995,2 55419  69.9989 166.9936 0003473 269.8354 159.9505 15.31278216 16041,6850.135,94.039,474.379,469.621,0.0
55419.0,STARLINK-5629,PAYLOAD,2023-05-13 06:00:00,15.30678332,0.0003493,69.9992,166.1098,271.0881,195.3324,-0.034767,-0.00945007,0.0,0 STARLINK-5629,1 55419U 23014AE  23133.25001157 -.00945007  00000-0 -34767-1 0  9992,2 55419  69.9992 166.1098 0003493 271.0881 195.3324 15.30678332 16098,6851.924,94.076,476.183,471.396,0.0
55419.0,STARLINK-5629,PAYLOAD,2023-05-13 14:00:01,15.30010175,0.0003433,69.9989,165.2267,275.1381,227.1431,-0.033979,-0.00907845,0.0,0 STARLINK-5629,1 55419U 23014AE  23133.58334491 -.00907845  00000-0 -33979-1 0  9990,2 55419  69.9989 165.2267 0003433 275.1381 227.1431 15.30010175  1302,6853.919,94.117,478.137,473.431,0.0
55419.0,STARLINK-5629,PAYLOAD,2023-05-13 22:00:00,15.29327412,0.0003359,69.9988,164.3446,267.8979,269.4728,-0.032388,-0.00851823,0.0,0 STARLINK-5629,1 55419U 23014AE  23133.91667824 -.00851823  00000-0 -32388-1 0  9993,2 55419  69.9988 164.3446 0003359 267.8979 269.4728 15.29327412 16204,6855.959,94.159,480.127,475.521,0.0
55419.0,STARLINK-5629,PAYLOAD,2023-05-14 06:00:00,15.28716225,0.0003415,69.9992,163.4633,268.6654,302.998,-0.036595,-0.00948674,0.0,0 STARLINK-5629,1 55419U 23014AE  23134.25001157 -.00948674  00000-0 -36595-1 0  9997,2 55419  69.9992 163.4633 0003415 268.6654 302.9980 15.28716225 16250,6857.786,94.197,481.993,477.309,0.0
